H1 CPF 01  gfz 2021 06 07 00  6581 terrasarx 
H2 0702601  6201 31698    2021 06 07 00 59 42 2021 06 12 00 00 42   120 1 1  0 0 0
H9
10 0 59372  53262.000000  0   -3529459.305  -2968081.632  -5124835.282
10 0 59372  53382.000000  0   -3125540.201  -2353655.976  -5676780.349
10 0 59372  53502.000000  0   -2656333.736  -1706023.026  -6129501.709
10 0 59372  53622.000000  0   -2129550.332  -1037523.933  -6475179.483
10 0 59372  53742.000000  0   -1554094.336   -360692.643  -6707856.532
10 0 59372  53862.000000  0    -939912.558    311975.793  -6823529.099
10 0 59372  53982.000000  0    -297825.109    968249.943  -6820207.823
10 0 59372  54102.000000  0     360661.080   1596378.773  -6697948.131
10 0 59372  54222.000000  0    1023552.205   2185296.195  -6458850.674
10 0 59372  54342.000000  0    1678581.969   2724813.015  -6107030.531
10 0 59372  54462.000000  0    2313433.981   3205792.028  -5648553.551
10 0 59372  54582.000000  0    2915970.180   3620303.173  -5091341.200
10 0 59372  54702.000000  0    3474461.093   3961757.215  -4445045.546
10 0 59372  54822.000000  0    3977815.622   4225016.267  -3720893.325
10 0 59372  54942.000000  0    4415805.021   4406477.325  -2931499.821
10 0 59372  55062.000000  0    4779275.441   4504126.265  -2090654.124
10 0 59372  55182.000000  0    5060343.845   4517560.714  -1213080.880
10 0 59372  55302.000000  0    5252573.150   4447980.845   -314180.346
10 0 59372  55422.000000  0    5351119.377   4298147.661    590246.759
10 0 59372  55542.000000  0    5352849.171   4072310.386   1484283.424
10 0 59372  55662.000000  0    5256425.016   3776102.849   2352184.942
10 0 59372  55782.000000  0    5062353.227   3416411.359   3178665.743
10 0 59372  55902.000000  0    4772992.929   3001218.382   3949176.458
10 0 59372  56022.000000  0    4392527.597   2539425.378   4650165.138
10 0 59372  56142.000000  0    3926901.442   2040660.447   5269316.543
10 0 59372  56262.000000  0    3383719.510   1515076.598   5795769.495
10 0 59372  56382.000000  0    2772115.359    973142.305   6220303.228
10 0 59372  56502.000000  0    2102591.307    425431.160   6535491.586
10 0 59372  56622.000000  0    1386834.707   -117583.261   6735826.331
10 0 59372  56742.000000  0     637511.663   -645726.730   6817809.927
10 0 59372  56862.000000  0    -131958.925  -1149315.134   6780012.581
10 0 59372  56982.000000  0    -907645.719  -1619331.421   6623094.897
10 0 59372  57102.000000  0   -1675356.510  -2047587.155   6349795.868
10 0 59372  57222.000000  0   -2420895.649  -2426864.556   5964887.111
10 0 59372  57342.000000  0   -3130325.395  -2751038.992   5475097.293
10 0 59372  57462.000000  0   -3790230.866  -3015181.464   4889002.105
10 0 59372  57582.000000  0   -4387978.637  -3215635.876   4216877.985
10 0 59372  57702.000000  0   -4911963.773  -3350070.148   3470525.617
10 0 59372  57822.000000  0   -5351841.234  -3417500.440   2663065.477
10 0 59372  57942.000000  0   -5698737.717  -3418288.712   1808707.669
10 0 59372  58062.000000  0   -5945437.344  -3354112.549    922497.506
10 0 59372  58182.000000  0   -6086535.306  -3227906.439     20043.751
10 0 59372  58302.000000  0   -6118556.544  -3043777.307   -882764.238
10 0 59372  58422.000000  0   -6040035.874  -2806895.893  -1770046.380
10 0 59372  58542.000000  0   -5851555.371  -2523365.987  -2626220.162
10 0 59372  58662.000000  0   -5555740.898  -2200076.746  -3436279.682
10 0 59372  58782.000000  0   -5157218.321  -1844541.688  -4186061.550
10 0 59372  58902.000000  0   -4662531.033  -1464728.442  -4862491.421
10 0 59372  59022.000000  0   -4080021.777  -1068883.620  -5453807.956
10 0 59372  59142.000000  0   -3419681.006   -665356.453  -5949759.606
10 0 59372  59262.000000  0   -2692967.080   -262425.862  -6341771.510
10 0 59372  59382.000000  0   -1912602.451    131865.568  -6623082.069
10 0 59372  59502.000000  0   -1092348.874    509867.155  -6788848.030
10 0 59372  59622.000000  0    -246767.532    864463.631  -6836218.357
10 0 59372  59742.000000  0     609033.585   1189205.521  -6764377.157
10 0 59372  59862.000000  0    1459661.969   1478422.427  -6574557.905
10 0 59372  59982.000000  0    2289712.215   1727320.818  -6270025.992
10 0 59372  60102.000000  0    3084040.099   1932062.991  -5856028.254
10 0 59372  60222.000000  0    3828035.343   2089825.807  -5339710.644
10 0 59372  60342.000000  0    4507889.241   2198839.265  -4730006.683
10 0 59372  60462.000000  0    5110854.964   2258404.342  -4037494.255
10 0 59372  60582.000000  0    5625492.850   2268888.549  -3274221.320
10 0 59372  60702.000000  0    6041895.962   2231699.424  -2453504.501
10 0 59372  60822.000000  0    6351892.546   2149236.468  -1589701.022
10 0 59372  60942.000000  0    6549216.742   2024821.657   -697956.909
10 0 59372  61062.000000  0    6629644.749   1862609.712    206062.192
10 0 59372  61182.000000  0    6591089.666   1667479.859   1106453.725
10 0 59372  61302.000000  0    6433654.947   1444913.160   1987364.163
10 0 59372  61422.000000  0    6159645.452   1200856.942   2833278.174
10 0 59372  61542.000000  0    5773531.604    941579.949   3629300.134
10 0 59372  61662.000000  0    5281870.527    673522.868   4361423.211
10 0 59372  61782.000000  0    4693185.408    403147.561   5016778.119
10 0 59372  61902.000000  0    4017809.061    136789.571   5583860.189
10 0 59372  62022.000000  0    3267691.712   -119484.504   6052729.341
10 0 59372  62142.000000  0    2456180.729   -360008.826   6415178.077
10 0 59372  62262.000000  0    1597778.132   -579638.499   6664869.319
10 0 59372  62382.000000  0     707877.784   -773856.257   6797442.575
10 0 59372  62502.000000  0    -197513.490   -938863.280   6810584.968
10 0 59372  62622.000000  0   -1102063.597  -1071652.489   6704067.923
10 0 59372  62742.000000  0   -1989408.607  -1170063.430   6479750.134
10 0 59372  62862.000000  0   -2843446.869  -1232817.021   6141546.497
10 0 59372  62982.000000  0   -3648630.479  -1259530.281   5695365.908
10 0 59372  63102.000000  0   -4390252.344  -1250711.993   5149015.328
10 0 59372  63222.000000  0   -5054721.020  -1207738.800   4512068.989
10 0 59372  63342.000000  0   -5629817.685  -1132810.993   3795704.727
10 0 59372  63462.000000  0   -6104928.942  -1028889.227   3012510.139
10 0 59372  63582.000000  0   -6471251.704   -899613.702   2176263.263
10 0 59372  63702.000000  0   -6721967.730   -749207.558   1301688.613
10 0 59372  63822.000000  0   -6852378.785   -582366.576    404191.115
10 0 59372  63942.000000  0   -6859998.806   -404137.945   -500423.358
10 0 59372  64062.000000  0   -6744602.079   -219791.046  -1396235.462
10 0 59372  64182.000000  0   -6508224.602    -34683.689  -2267501.021
10 0 59372  64302.000000  0   -6155122.229    145871.920  -3098933.675
10 0 59372  64422.000000  0   -5691684.467    316741.554  -3875979.371
10 0 59372  64542.000000  0   -5126305.344    473095.599  -4585072.346
10 0 59372  64662.000000  0   -4469218.034    610526.473  -5213868.962
10 0 59372  64782.000000  0   -3732297.228    725154.937  -5751455.418
10 0 59372  64902.000000  0   -2928834.848    813721.950  -6188527.545
10 0 59372  65022.000000  0   -2073294.316    873664.859  -6517539.504
10 0 59372  65142.000000  0   -1181048.827    903177.659  -6732823.201
10 0 59372  65262.000000  0    -268106.502    901253.881  -6830675.053
10 0 59372  65382.000000  0     649170.310    867711.165  -6809411.511
10 0 59372  65502.000000  0    1554350.127    803197.512  -6669397.065
10 0 59372  65622.000000  0    2431221.251    709179.268  -6413039.751
10 0 59372  65742.000000  0    3264076.531    587911.085  -6044753.904
10 0 59372  65862.000000  0    4037991.082    442387.991  -5570891.201
10 0 59372  65982.000000  0    4739088.363    276279.540  -4999641.749
10 0 59372  66102.000000  0    5354792.812     93848.501  -4340904.578
10 0 59372  66222.000000  0    5874063.070   -100145.972  -3606126.152
10 0 59372  66342.000000  0    6287599.545   -300558.465  -2808110.083
10 0 59372  66462.000000  0    6588023.655   -501978.830  -1960800.386
10 0 59372  66582.000000  0    6770022.697   -698862.206  -1079039.070
10 0 59372  66702.000000  0    6830455.156   -885664.055   -178303.985
10 0 59372  66822.000000  0    6768414.342  -1056977.529    725567.771
10 0 59372  66942.000000  0    6585247.405  -1207669.574   1616666.189
10 0 59372  67062.000000  0    6284529.551  -1333012.417   2479297.153
10 0 59372  67182.000000  0    5871991.648  -1428805.900   3298268.726
10 0 59372  67302.000000  0    5355404.980  -1491488.193   4059165.126
10 0 59372  67422.000000  0    4744426.504  -1518233.030   4748604.983
10 0 59372  67542.000000  0    4050408.585  -1507029.160   5354477.822
10 0 59372  67662.000000  0    3286179.046  -1456741.041   5866155.807
10 0 59372  67782.000000  0    2465794.917  -1367150.554   6274676.400
10 0 59372  67902.000000  0    1604277.846  -1238978.461   6572893.367
10 0 59372  68022.000000  0     717334.669  -1073885.445   6755596.577
10 0 59372  68142.000000  0    -178931.704   -874451.635   6819597.184
10 0 59372  68262.000000  0   -1068314.515   -644136.113   6763778.441
10 0 59372  68382.000000  0   -1934794.683   -387217.094   6589113.552
10 0 59372  68502.000000  0   -2762827.775   -108712.906   6298649.840
10 0 59372  68622.000000  0   -3537622.660    185714.676   5897460.096
10 0 59372  68742.000000  0   -4245408.438    489873.127   5392560.106
10 0 59372  68862.000000  0   -4873684.423    797166.194   4792791.880
10 0 59372  68982.000000  0   -5411448.491   1100733.108   4108674.556
10 0 59372  69102.000000  0   -5849398.352   1393597.415   3352223.177
10 0 59372  69222.000000  0   -6180101.330   1668822.031   2536739.670
10 0 59372  69342.000000  0   -6398129.717   1919666.939   1676578.200
10 0 59372  69462.000000  0   -6500158.068   2139746.055    786888.679
10 0 59372  69582.000000  0   -6485018.140   2323179.451   -116657.712
10 0 59372  69702.000000  0   -6353709.630   2464735.702  -1018153.377
99
